25042,IRIDIUM 39,1997,99.37,-1.0,-,86.39,Inactive,0,LEO,USA,USA,Unknown,Unknown,Unknown,1 25042U 97069D   25105.43258488  .00001784  00000+0  46311-3 0  9996,2 25042  86.3916 238.0182 0018977 151.0646 209.1614 14.49113305439872,14.49113305,0.0018977,LEO
25043,IRIDIUM 38,1997,100.14,-1.0,-,86.39,Inactive,0,LEO,USA,USA,Unknown,Unknown,Unknown,1 25043U 97069E   25105.26775059  .00001114  00000+0  36190-3 0  9997,2 25043  86.3918 259.6243 0001107  28.0951 332.0306 14.38041709436913,14.38041709,0.0001107,LEO
25077,IRIDIUM 42,1997,100.26,-1.0,-,86.39,Inactive,0,LEO,PRC,USA,Unknown,Unknown,Unknown,1 25077U 97077A   25104.98778254  .00000963  00000+0  32310-3 0  9992,2 25077  86.3913 265.8394 0001715  72.9179 287.2206 14.36281728432120,14.36281728,0.0001715,LEO
25078,IRIDIUM 44,1997,99.99,-1.0,-,86.39,Inactive,0,LEO,PRC,USA,Unknown,Unknown,Unknown,1 25078U 97077B   25105.46017799  .00001030  00000+0  31991-3 0  9997,2 25078  86.3941 247.7168 0001333 154.5734 205.5531 14.40172924434702,14.40172924,0.0001333,LEO
25104,IRIDIUM 45,1997,94.76,-1.0,-,86.36,Inactive,0,LEO,USA,USA,Unknown,Unknown,Unknown,1 25104U 97082A   25104.96720379  .00022805  00000+0  87525-3 0  9999,2 25104  86.3563  78.5290 0121151 206.5976 152.9021 15.19659235442435,15.19659235,0.0121151,LEO
25105,IRIDIUM 24,1997,99.86,-1.0,-,86.39,Inactive,0,LEO,USA,USA,Unknown,Unknown,Unknown,1 25105U 97082B   25105.51369451  .00001058  00000+0  31661-3 0  9999,2 25105  86.3856 106.8920 0009145 289.5217  70.4995 14.42015105434435,14.42015105,0.0009145,LEO
25262,IRIDIUM 51,1998,93.84,-1.0,-,86.38,Inactive,0,LEO,PRC,USA,Unknown,Unknown,Unknown,1 25262U 98018A   25104.96008814  .00040921  00000+0  10373-2 0  9992,2 25262  86.3813  87.0221 0099557 131.1269 229.8631 15.34489656437316,15.34489656,0.0099557,LEO
25273,IRIDIUM 57,1998,100.29,-1.0,-,86.4,Inactive,0,LEO,USA,USA,Unknown,Unknown,Unknown,1 25273U 98019B   25105.59194793  .00000663  00000+0  22247-3 0  9990,2 25273  86.4016 171.4744 0002190  93.5813 266.5634 14.35841738415809,14.35841738,0.000219,LEO
